{
"type": "FeatureCollection",
"name": "campus_routes",
"crs": { "type": "name", "properties": { "name": "urn:ogc:def:crs:OGC:1.3:CRS84" } },
"features": [
{ "type": "Feature", "properties": { "id": 1 }, "geometry": { "type": "MultiLineString", "coordinates": [ [ [ 623.954824234502098, -998.078061647082677 ], [ 584.818646787289026, -975.98505824946244 ] ] ] } },
{ "type": "Feature", "properties": { "id": 2 }, "geometry": { "type": "MultiLineString", "coordinates": [ [ [ 623.32359556599863, -997.446832978579209 ], [ 623.954824234502098, -887.61304465898138 ], [ 611.961479532936892, -886.981815990477912 ] ] ] } },
{ "type": "Feature", "properties": { "id": 3 }, "geometry": { "type": "MultiLineString", "coordinates": [ [ [ 620.798680891984986, -997.446832978578755 ], [ 626.479738908515856, -748.742737588225054 ] ] ] } },
{ "type": "Feature", "properties": { "id": 4 }, "geometry": { "type": "MultiLineString", "coordinates": [ [ [ 623.954824234502098, -998.078061647082222 ], [ 629.004653582529613, -755.055024273259392 ], [ 643.522912958108691, -750.00519492523199 ], [ 721.164039184031253, -749.373966256728522 ] ] ] } },
{ "type": "Feature", "properties": { "id": 5 }, "geometry": { "type": "MultiLineString", "coordinates": [ [ [ 623.165788398872905, -997.604640145704707 ], [ 626.00631740713834, -860.785826247584851 ], [ 626.00631740713834, -859.838983244829706 ], [ 683.76374057520286, -839.481858685593807 ], [ 688.497955588978584, -840.902123189726581 ], [ 742.94142824740004, -843.269230696614386 ], [ 740.574320740512121, -921.383778423914691 ] ] ] } },
{ "type": "Feature", "properties": { "id": 6 }, "geometry": { "type": "MultiLineString", "coordinates": [ [ [ 622.140041812554841, -997.210122227889997 ], [ 714.299427414056595, -998.472579564896819 ], [ 714.299427414056595, -998.788193899148496 ], [ 714.299427414056595, -1012.043995937720751 ] ] ] } },
{ "type": "Feature", "properties": { "id": 7 }, "geometry": { "type": "MultiLineString", "coordinates": [ [ [ 621.508813144051373, -998.156965230645142 ], [ 789.100024631713723, -999.103808233400287 ], [ 789.415638965965513, -1018.987511291258556 ] ] ] } },
{ "type": "Feature", "properties": { "id": 8 }, "geometry": { "type": "MultiLineString", "coordinates": [ [ [ 622.771270481058195, -997.525736562141788 ], [ 789.415638965965513, -1000.050651236155545 ], [ 789.415638965965513, -997.525736562141788 ], [ 789.100024631713836, -981.745019849555888 ], [ 848.435519471036855, -982.376248518059356 ], [ 848.435519471036855, -994.053978885372885 ] ] ] } },
{ "type": "Feature", "properties": { "id": 9 }, "geometry": { "type": "MultiLineString", "coordinates": [ [ [ 624.664956486568713, -998.156965230644573 ], [ 626.558642492079116, -830.56575374298211 ], [ 441.924256954823818, -813.522579693389275 ], [ 449.499000976865034, -722.625651428894457 ] ] ] } },
{ "type": "Feature", "properties": { "id": 10 }, "geometry": { "type": "MultiLineString", "coordinates": [ [ [ 622.771270481058536, -996.26327922513417 ], [ 634.133386514120389, -664.868228260829824 ], [ 673.900792629836928, -668.655600271850517 ], [ 675.794478635347218, -629.835037158889122 ], [ 658.751304585754383, -604.270276084499983 ], [ 627.505485494834375, -585.333416029396858 ], [ 631.292857505854954, -599.536061070724145 ] ] ] } },
{ "type": "Feature", "properties": { "id": 11 }, "geometry": { "type": "MultiLineString", "coordinates": [ [ [ 623.718113483813795, -997.683543729266603 ], [ 621.824427478303505, -823.464431222318012 ], [ 446.65847196859977, -813.99600119476645 ], [ 467.489018029213184, -624.627400643735427 ], [ 474.116919048499255, -554.797729190542782 ] ] ] } },
{ "type": "Feature", "properties": { "id": 12 }, "geometry": { "type": "MultiLineString", "coordinates": [ [ [ 624.664956486569054, -995.079725471689244 ], [ 622.771270481058764, -826.54167098127175 ], [ 442.871099957579418, -808.551653928923884 ], [ 463.701646018192776, -616.342524369627426 ], [ 467.489018029213412, -588.173945037661497 ], [ 602.887567423200608, -596.695532062457914 ], [ 609.515468442486622, -494.436487764901244 ], [ 614.249683456262346, -420.819444300688019 ], [ 499.681680122888679, -415.138386284157036 ], [ 500.628523125643824, -428.394188322729235 ] ] ] } }
]
}
